NORAD_CAT_ID,OBJECT_NAME,OBJECT_TYPE,EPOCH,MEAN_MOTION,ECCENTRICITY,INCLINATION,RA_OF_ASC_NODE,ARG_OF_PERICENTER,MEAN_ANOMALY,BSTAR,MEAN_MOTION_DOT,MEAN_MOTION_DDOT,TLE_LINE0,TLE_LINE1,TLE_LINE2,SEMIMAJOR_AXIS,PERIOD,APOGEE,PERIGEE,DECAYED
53134.0,STARLINK-4150,PAYLOAD,2024-05-05 19:23:32,15.08855463,0.0001292,53.2169,314.8054,80.9465,279.1674,0.00044772,6.848e-05,0.0,0 STARLINK-4150,1 53134U 22083C   24126.80801430  .00006848  00000-0  44772-3 0  9993,2 53134  53.2169 314.8054 0001292  80.9465 279.1674 15.08855463 99633,6917.833,95.437,540.592,538.804,0.0
53134.0,STARLINK-4150,PAYLOAD,2024-05-06 04:55:51,15.08849606,0.000119,53.2163,313.0203,73.2158,286.8965,0.00043871,6.703e-05,0.0,0 STARLINK-4150,1 53134U 22083C   24127.20545690  .00006703  00000-0  43871-3 0  9990,2 53134  53.2163 313.0203 0001190  73.2158 286.8965 15.08849606 99691,6917.851,95.437,540.539,538.893,0.0
53134.0,STARLINK-4150,PAYLOAD,2024-05-06 19:14:19,15.08844235,0.0001216,53.2171,310.3458,88.0709,272.0422,0.00018033,2.584e-05,0.0,0 STARLINK-4150,1 53134U 22083C   24127.80161688  .00002584  00000-0  18033-3 0  9992,2 53134  53.2171 310.3458 0001216  88.0709 272.0422 15.08844235100418,6917.867,95.437,540.574,538.891,0.0
53134.0,STARLINK-4150,PAYLOAD,2024-05-07 12:43:34,15.08833726,0.000117,53.2181,307.076,95.0546,265.058,-0.00014043,-2.522e-05,0.0,0 STARLINK-4150,1 53134U 22083C   24128.53025996 -.00002522  00000-0 -14043-3 0  9995,2 53134  53.2181 307.0760 0001170  95.0546 265.0580 15.08833726100526,6917.9,95.438,540.574,538.955,0.0
53134.0,STARLINK-4150,PAYLOAD,2024-05-07 19:05:07,15.08834283,0.0001121,53.2172,305.8854,98.234,261.8779,-9.7978e-05,-1.847e-05,0.0,0 STARLINK-4150,1 53134U 22083C   24128.79522264 -.00001847  00000-0 -97978-4 0  9991,2 53134  53.2172 305.8854 0001121  98.2340 261.8779 15.08834283 99934,6917.898,95.438,540.538,538.987,0.0
53134.0,STARLINK-4150,PAYLOAD,2024-05-08 10:58:58,15.08838131,0.0001133,53.2175,302.9111,101.2343,258.8776,0.00011549,1.551e-05,0.0,0 STARLINK-4150,1 53134U 22083C   24129.45762368  .00001551  00000-0  11549-3 0  9995,2 53134  53.2175 302.9111 0001133 101.2343 258.8776 15.08838131100035,6917.886,95.438,540.535,538.967,0.0
53134.0,STARLINK-4150,PAYLOAD,2024-05-08 18:55:54,15.08846937,0.0001118,53.2172,301.4239,99.4839,260.628,0.00018494,2.657e-05,0.0,0 STARLINK-4150,1 53134U 22083C   24129.78882031  .00002657  00000-0  18494-3 0  9995,2 53134  53.2172 301.4239 0001118  99.4839 260.6280 15.08846937100717,6917.859,95.437,540.498,538.951,0.0
53134.0,STARLINK-4150,PAYLOAD,2024-05-09 18:46:41,15.08846796,0.0001042,53.217,296.9622,79.6052,280.5058,0.00024086,3.548e-05,0.0,0 STARLINK-4150,1 53134U 22083C   24130.78242290  .00003548  00000-0  24086-3 0  9998,2 53134  53.2170 296.9622 0001042  79.6052 280.5058 15.08846796100865,6917.86,95.437,540.445,539.004,0.0
53134.0,STARLINK-4150,PAYLOAD,2024-05-10 10:40:33,15.08841209,0.0001035,53.2162,293.9904,76.1713,283.9395,0.00012402,1.687e-05,0.0,0 STARLINK-4150,1 53134U 22083C   24131.44482735  .00001687  00000-0  12402-3 0  9993,2 53134  53.2162 293.9904 0001035  76.1713 283.9395 15.08841209100960,6917.877,95.437,540.458,539.026,0.0
53134.0,STARLINK-4150,PAYLOAD,2024-05-10 17:02:05,15.08842034,0.000108,53.2161,292.8007,74.908,285.2032,0.00013266,1.824e-05,0.0,0 STARLINK-4150,1 53134U 22083C   24131.70978759  .00001824  00000-0  13266-3 0  9990,2 53134  53.2161 292.8007 0001080  74.9080 285.2032 15.08842034100379,6917.874,95.437,540.486,538.992,0.0
53134.0,STARLINK-4150,PAYLOAD,2024-05-11 20:03:37,15.08822359,0.0001697,53.2165,287.7436,79.0613,281.057,-0.0012292,-0.00019788,0.0,0 STARLINK-4150,1 53134U 22083C   24132.83585232 -.00019788  00000-0 -12292-2 0  9992,2 53134  53.2165 287.7436 0001697  79.0613 281.0570 15.08822359101172,6917.934,95.439,540.973,538.625,0.0
53134.0,STARLINK-4150,PAYLOAD,2024-05-12 10:22:11,15.08704173,5.34e-05,53.2153,285.0681,73.2826,286.8225,-0.003099,-0.00049088,0.0,0 STARLINK-4150,1 53134U 22083C   24133.43207374 -.00049088  00000-0 -30990-2 0  9998,2 53134  53.2153 285.0681 0000534  73.2826 286.8225 15.08704173101266,6918.296,95.446,540.53,539.791,0.0
53134.0,STARLINK-4150,PAYLOAD,2024-05-12 13:32:58,15.0868653,8.58e-05,53.2198,284.473,75.0499,285.0589,-0.0029566,-0.00046839,0.0,0 STARLINK-4150,1 53134U 22083C   24133.56456876 -.00046839  00000-0 -29566-2 0  9993,2 53134  53.2198 284.4730 0000858  75.0499 285.0589 15.08686530100650,6918.35,95.447,540.808,539.621,0.0
53134.0,STARLINK-4150,PAYLOAD,2024-05-12 16:43:46,15.08677435,0.0001088,53.2162,283.8802,106.9867,253.1244,-0.0027314,-0.00043304,0.0,0 STARLINK-4150,1 53134U 22083C   24133.69706492 -.00043304  00000-0 -27314-2 0  9992,2 53134  53.2162 283.8802 0001088 106.9867 253.1244 15.08677435100673,6918.377,95.448,540.995,539.49,0.0
53134.0,STARLINK-4150,PAYLOAD,2024-05-13 10:13:02,15.08788211,0.00013,53.2178,280.6073,106.3739,253.7396,0.00081276,0.00012653,0.0,0 STARLINK-4150,1 53134U 22083C   24134.42571884  .00012653  00000-0  81276-3 0  9998,2 53134  53.2178 280.6073 0001300 106.3739 253.7396 15.08788211101416,6918.039,95.441,540.803,539.004,0.0
53134.0,STARLINK-4150,PAYLOAD,2024-05-13 16:34:34,15.08831861,0.0001531,53.2167,279.4193,118.5155,241.5992,0.002127,0.00033718,0.0,0 STARLINK-4150,1 53134U 22083C   24134.69067878  .00033718  00000-0  21270-2 0  9992,2 53134  53.2167 279.4193 0001531 118.5155 241.5992 15.08831861101457,6917.905,95.438,540.829,538.711,0.0
53134.0,STARLINK-4150,PAYLOAD,2024-05-14 10:03:47,15.0887107,0.0001584,53.2163,276.1471,100.5926,259.5244,0.0020251,0.00032116,0.0,0 STARLINK-4150,1 53134U 22083C   24135.41930065  .00032116  00000-0  20251-2 0  9999,2 53134  53.2163 276.1471 0001584 100.5926 259.5244 15.08871070100938,6917.785,95.436,540.746,538.555,0.0
53134.0,STARLINK-4150,PAYLOAD,2024-05-14 16:25:18,15.08902111,3.16e-05,53.2165,274.9565,69.8783,290.2243,0.0019611,0.00031114,0.0,0 STARLINK-4150,1 53134U 22083C   24135.68424559  .00031114  00000-0  19611-2 0  9999,2 53134  53.2165 274.9565 0000316  69.8783 290.2243 15.08902111101607,6917.691,95.434,539.774,539.337,0.0
53134.0,STARLINK-4150,PAYLOAD,2024-05-15 13:05:16,15.08893729,0.0001339,53.2122,271.0863,21.7881,338.3168,-7.7462e-05,-1.522e-05,0.0,0 STARLINK-4150,1 53134U 22083C   24136.54532551 -.00001522  00000-0 -77462-4 0  9999,2 53134  53.2122 271.0863 0001339  21.7881 338.3168 15.08893729101739,6917.716,95.434,540.507,538.655,0.0
53134.0,STARLINK-4150,PAYLOAD,2024-05-15 14:40:39,15.08893331,0.0001186,53.2144,270.7886,24.5934,335.5115,-0.00012386,-2.262e-05,0.0,0 STARLINK-4150,1 53134U 22083C   24136.61156282 -.00002262  00000-0 -12386-3 0  9995,2 53134  53.2144 270.7886 0001186  24.5934 335.5115 15.08893331101116,6917.717,95.434,540.403,538.762,0.0
53134.0,STARLINK-4150,PAYLOAD,2024-05-15 16:16:01,15.08895212,0.000102,53.2164,270.4955,60.0094,300.0999,-7.8083e-05,-1.532e-05,0.0,0 STARLINK-4150,1 53134U 22083C   24136.67779969 -.00001532  00000-0 -78083-4 0  9990,2 53134  53.2164 270.4955 0001020  60.0094 300.0999 15.08895212101129,6917.712,95.434,540.282,538.871,0.0
53134.0,STARLINK-4150,PAYLOAD,2024-05-16 01:48:20,15.08881292,8.15e-05,53.2179,268.7105,34.7766,325.328,-0.00033778,-5.665e-05,0.0,0 STARLINK-4150,1 53134U 22083C   24137.07523234 -.00005665  00000-0 -33778-3 0  9999,2 53134  53.2179 268.7105 0000815  34.7766 325.3280 15.08881292101819,6917.754,95.435,540.183,539.055,0.0
53134.0,STARLINK-4150,PAYLOAD,2024-05-16 17:42:09,15.08882512,0.0001041,53.2185,265.7375,59.0965,301.013,-0.00012229,-2.236e-05,0.0,0 STARLINK-4150,1 53134U 22083C   24137.73761569 -.00002236  00000-0 -12229-3 0  9996,2 53134  53.2185 265.7375 0001041  59.0965 301.0130 15.08882512101287,6917.75,95.435,540.336,538.895,0.0
53134.0,STARLINK-4150,PAYLOAD,2024-05-17 01:39:06,15.08859755,0.0001383,53.2171,264.2481,71.1948,288.9194,-0.00020438,-3.541e-05,0.0,0 STARLINK-4150,1 53134U 22083C   24138.06882001 -.00003541  00000-0 -20438-3 0  9999,2 53134  53.2171 264.2481 0001383  71.1948 288.9194 15.08859755101960,6917.82,95.436,540.642,538.728,0.0
53134.0,STARLINK-4150,PAYLOAD,2024-05-17 14:22:11,15.08850228,0.0001821,53.2157,261.8718,75.2414,284.878,-0.00014425,-2.584e-05,0.0,0 STARLINK-4150,1 53134U 22083C   24138.59874131 -.00002584  00000-0 -14425-3 0  9997,2 53134  53.2157 261.8718 0001821  75.2414 284.8780 15.08850228101412,6917.849,95.437,540.974,538.454,0.0
53134.0,STARLINK-4150,PAYLOAD,2024-05-18 14:12:57,15.08856466,0.0001619,53.2162,257.4108,96.4393,263.6784,0.00022627,3.316e-05,0.0,0 STARLINK-4150,1 53134U 22083C   24139.59233758  .00003316  00000-0  22627-3 0  9997,2 53134  53.2162 257.4108 0001619  96.4393 263.6784 15.08856466101563,6917.83,95.437,540.815,538.575,0.0
53134.0,STARLINK-4150,PAYLOAD,2024-05-19 01:20:40,15.08835158,0.0001516,53.2133,255.3292,85.2805,274.836,4.4503e-05,4.2e-06,0.0,0 STARLINK-4150,1 53134U 22083C   24140.05602751  .00000420  00000-0  44503-4 0  9994,2 53134  53.2133 255.3292 0001516  85.2805 274.8360 15.08835158102269,6917.895,95.438,540.809,538.711,0.0
53134.0,STARLINK-4150,PAYLOAD,2024-05-19 14:03:47,15.08811875,0.0001898,53.2176,252.9492,95.0639,265.0569,-0.00019876,-3.448e-05,0.0,0 STARLINK-4150,1 53134U 22083C   24140.58596560 -.00003448  00000-0 -19876-3 0  9991,2 53134  53.2176 252.9492 0001898  95.0639 265.0569 15.08811875101710,6917.966,95.439,541.144,538.518,0.0
53134.0,STARLINK-4150,PAYLOAD,2024-05-20 12:19:10,15.08857843,0.0001677,53.2162,248.7893,71.0294,289.088,0.00069064,0.00010726,0.0,0 STARLINK-4150,1 53134U 22083C   24141.51331721  .00010726  00000-0  69064-3 0  9990,2 53134  53.2162 248.7893 0001677  71.0294 289.0880 15.08857843102481,6917.826,95.436,540.851,538.531,0.0
53134.0,STARLINK-4150,PAYLOAD,2024-05-20 13:54:33,15.08862652,0.0001448,53.2172,248.4891,88.187,271.9288,0.00069769,0.0001084,0.0,0 STARLINK-4150,1 53134U 22083C   24141.57955306  .00010840  00000-0  69769-3 0  9996,2 53134  53.2172 248.4891 0001448  88.1870 271.9288 15.08862652101869,6917.811,95.436,540.678,538.674,0.0
